[{"OBJECT_NAME":"STARLINK-34675","OBJECT_ID":"2025-150V","EPOCH":"2026-03-09T14:23:12.206112","MEAN_MOTION":14.98331751,"ECCENTRICITY":0.0003422,"INCLINATION":70.0017,"RA_OF_ASC_NODE":134.6736,"ARG_OF_PERICENTER":269.9117,"MEAN_ANOMALY":90.165,"EPHEMERIS_TYPE":0,"CLASSIFICATION_TYPE":"U","NORAD_CAT_ID":64809,"ELEMENT_SET_NO":999,"REV_AT_EPOCH":3650,"BSTAR":0.0005531,"MEAN_MOTION_DOT":6.513e-5,"MEAN_MOTION_DDOT":0},{"OBJECT_NAME":"BREEZE-KM R\/B","OBJECT_ID":"2016-011B","EPOCH":"2026-03-09T13:46:31.765728","MEAN_MOTION":15.28220455,"ECCENTRICITY":0.0143188,"INCLINATION":98.6722,"RA_OF_ASC_NODE":284.67,"ARG_OF_PERICENTER":63.2473,"MEAN_ANOMALY":298.3333,"EPHEMERIS_TYPE":0,"CLASSIFICATION_TYPE":"U","NORAD_CAT_ID":41336,"ELEMENT_SET_NO":999,"REV_AT_EPOCH":55224,"BSTAR":0.00023628,"MEAN_MOTION_DOT":8.734e-5,"MEAN_MOTION_DDOT":0}]
